STARLINK-32106          
1 59690U 24086J   26068.38247086 -.00000863  00000+0 -21801-4 0  9993
2 59690  43.0082  53.9773 0003113 282.9048  77.1456 15.27572207104152
FLOCK 4G-5              
1 62663U 25009BG  26068.45638436  .00011278  00000+0  40688-3 0  9997
2 62663  97.4058 151.2478 0002094 314.5072  45.5996 15.28679529 63699
